#aV2010 11  1  0  0   .00000000      96 DD+AD WGS84 FIT  NGA
## 1608  86400.00000000   900.00000000 55501  .0000000000000
+   32     1  2  3  4  5  6  7  8  9 10 11 12 13 14 15 16 17
+         18 19 20 21 22 23 24 25 26 27 28 29 30 31 32  0  0
+          0  0  0  0  0  0  0  0  0  0  0  0  0  0  0  0  0
+          0  0  0  0  0  0  0  0  0  0  0  0  0  0  0  0  0
+          0  0  0  0  0  0  0  0  0  0  0  0  0  0  0  0  0
++         0  0  0  0  0  0  0  0  0  0  0  0  0  0  0  0  0
++         0  0  0  0  0  0  0  0  0  0  0  0  0  0  0  0  0
++         0  0  0  0  0  0  0  0  0  0  0  0  0  0  0  0  0
++         0  0  0  0  0  0  0  0  0  0  0  0  0  0  0  0  0
++         0  0  0  0  0  0  0  0  0  0  0  0  0  0  0  0  0
%c cc cc ccc ccc cccc cccc cccc cccc ccccc ccccc ccccc ccccc
%c cc cc ccc ccc cccc cccc cccc cccc ccccc ccccc ccccc ccccc
%f  0.0000000  0.000000000  0.00000000000  0.000000000000000
%f  0.0000000  0.000000000  0.00000000000  0.000000000000000
%i    0    0    0    0      0      0      0      0         0
%i    0    0    0    0      0      0      0      0         0
/*      NGA, ST. LOUIS,MO.                                  
/*   EPHEMERIS COMPUTED FROM  3 DAYS OF DATA                
/* CCCCCCCCCCCCCCCCCCCCCCCCCCCCCCCCCCCCCCCCCCCCCCCCCCCCCCCCC
/* CCCCCCCCCCCCCCCCCCCCCCCCCCCCCCCCCCCCCCCCCCCCCCCCCCCCCCCCC
*  2010 11  1 19  0   .00000000                                                 
P  1  -3667.529852  24897.302832  -8404.402412   -178.111548                    
V  1  -6236.346566   8864.111423  29506.209586      -.036296                    
P  2 -12053.245066 -22915.353619   6939.343718    299.526285                    
V  2   7753.640685   4942.223621  29326.607922       .025745                    
P  3  11900.067268  12713.947702 -20526.318313    629.447031                    
V  3 -24109.086437   7519.719495  -9173.219650       .050726                    
P  4  -1791.342193 -21004.577849  15748.779533    208.739028                    
V  4  14745.683679  14561.395846  21199.889278       .096031                    
P  5  -6031.365061 -18748.583140 -17784.247989    -60.696705                    
V  5   9989.535780 -20360.614972  18180.300584      -.059326                    
P  6   6373.161012  14622.218915 -21090.405860    434.958230                    
V  6 -26657.922266   5627.917798  -3942.981654      -.130660                    
P  7  14660.890951  -5062.380455 -21586.046254      -.986080                    
V  7  16466.900329  21829.079596   5869.165925       .002946                    
P  8   6329.363581 -14947.033887 -20880.849056      6.890122                    
V  8  15467.781672  21646.452955 -11334.851405       .000412                    
P  9 -20108.037834 -13482.512191  10397.238764     39.937640                    
V  9  -7340.180475 -12065.856098 -28361.247714       .022775                    
P 10   5464.336669 -24958.437632  -6713.743192    -56.786837                    
V 10   6260.634963  -6430.600519  30211.174561      -.010486                    
P 11  23172.523433   6352.851077  11386.827016   -100.815204                    
V 11   9319.888897  12388.195794 -24855.390996      -.028029                    
P 12 -14755.024010  -3312.939917  21856.522584    -57.914347                    
V 12  10338.340909 -25646.307992   3244.438768       .035963                    
P 13  25300.897776  -5650.393600  -6029.682139    293.248603                    
V 13   7547.459483   1210.284992  31174.939815      -.010597                    
P 14 -11170.998345  14105.056822  19644.467608    103.387367                    
V 14 -24579.024473   1213.987820 -15104.090724       .034259                    
P 15 -22629.253459  -5625.745662 -12828.944602   -188.512186                    
V 15  15700.011271  -4952.192604 -25345.614192       .046912                    
P 16   1063.990304  22102.873996 -14450.344867   -122.429794                    
V 16  -9240.276740  16136.113670  24220.784399      -.032718                    
P 17  13541.766928 -14190.557679  17913.140506    176.056514                    
V 17  22660.749271   -906.635200 -18174.534396       .011488                    
P 18 -16549.911141  16561.473485 -11884.504528    102.235568                    
V 18   3065.140328 -15803.354628 -26028.026973       .021928                    
P 19  21577.692139   8152.588788 -13439.911805    -79.397518                    
V 19 -16802.876745   3100.144324 -24763.160499      -.033243                    
P 20  16127.877900    812.326784  20944.986337     49.838011                    
V 20  -8550.522798  25634.838391   5616.444306      -.002370                    
P 21 -14041.885513   7298.080409 -21006.646787    -99.324879                    
V 21 -16697.270611 -21967.489790   2852.579383      -.026866                    
P 22 -11278.612144  23950.597511  -1216.261729    159.766595                    
V 22  -2772.066215  -3104.338462 -31139.425825      -.008383                    
P 23  26250.055386     74.322674   5092.139466    345.849485                    
V 23  -6050.202707   3117.443669  30788.743774      -.020069                    
P 24  17841.432584  19285.366572   4893.730065    335.168163                    
V 24   1160.979208   6635.145622 -30506.306746       .033486                    
P 25 -17066.488106  10456.772652  17445.950119    -49.053885                    
V 25   6394.027487 -21311.347987  18993.867552      -.022594                    
P 26 -13197.685911 -12359.334666 -20169.582967    -41.755531                    
V 26  24069.971760  -2222.472970 -14402.206759      -.078527                    
P 27 -19938.602220 -16938.043081   5895.391572    203.750319                    
V 27  -2893.117353  -6165.142208 -30883.384937       .036696                    
P 28  12967.683731 -22583.181619  -3878.246843      2.841279                    
V 28    221.265906   6197.841747 -31680.539310       .016951                    
P 29 -25658.232508   5498.573308  -3890.011632    160.555053                    
V 29  -5315.060078  -2268.010836  31264.758549       .027992                    
P 30 -14627.306853  19297.975706  10514.958006    292.526812                    
V 30   2142.368181 -14061.106787  27681.599273       .033725                    
P 31   4703.355533  21873.453334  14383.600375      4.644918                    
V 31 -12387.554130 -13096.860506  24496.126144       .036604                    
P 32  12320.875322   9658.166514  21805.634218   -121.918444                    
V 32 -12262.909175  23953.652531  -3363.401403      -.085867                    
EOF
